NORAD_CAT_ID,OBJECT_NAME,OBJECT_TYPE,EPOCH,MEAN_MOTION,ECCENTRICITY,INCLINATION,RA_OF_ASC_NODE,ARG_OF_PERICENTER,MEAN_ANOMALY,BSTAR,MEAN_MOTION_DOT,MEAN_MOTION_DDOT,TLE_LINE0,TLE_LINE1,TLE_LINE2,SEMIMAJOR_AXIS,PERIOD,APOGEE,PERIGEE,DECAYED
55395.0,STARLINK-5274,PAYLOAD,2023-05-04 13:54:38,15.69926127,0.0003324,69.998,188.509,264.8526,95.229,2.2395e-05,2.481e-05,0.0,0 STARLINK-5274,1 55395U 23014E   23124.57961005  .00002481  00000-0  22395-4 0  9992,2 55395  69.9980 188.5090 0003324 264.8526  95.2290 15.69926127 15726,6737.245,91.724,361.35,356.871,0.0
55395.0,STARLINK-5274,PAYLOAD,2023-05-04 16:58:08,15.69927881,0.000334,69.998,188.1505,265.1651,94.9163,2.4483e-05,2.732e-05,0.0,0 STARLINK-5274,1 55395U 23014E   23124.70704258  .00002732  00000-0  24483-4 0  9991,2 55395  69.9980 188.1505 0003340 265.1651  94.9163 15.69927881 14805,6737.24,91.724,361.356,356.855,0.0
55395.0,STARLINK-5274,PAYLOAD,2023-05-04 21:33:24,15.69921881,0.0003195,69.9983,187.6148,265.936,94.1471,1.2016e-05,1.232e-05,0.0,0 STARLINK-5274,1 55395U 23014E   23124.89819669  .00001232  00000-0  12016-4 0  9997,2 55395  69.9983 187.6148 0003195 265.9360  94.1471 15.69921881 15773,6737.257,91.724,361.275,356.97,0.0
55395.0,STARLINK-5274,PAYLOAD,2023-05-05 05:12:09,15.69922632,0.0003266,69.9978,186.7184,261.6425,98.44,-3.1883e-06,-5.96e-06,0.0,0 STARLINK-5274,1 55395U 23014E   23125.21678000 -.00000596  00000-0 -31883-5 0  9994,2 55395  69.9978 186.7184 0003266 261.6425  98.4400 15.69922632 14886,6737.255,91.724,361.321,356.92,0.0
55395.0,STARLINK-5274,PAYLOAD,2023-05-05 12:50:01,15.71207739,0.0007978,69.9978,185.8201,304.6027,55.4416,0.002424,0.00319528,0.0,0 STARLINK-5274,1 55395U 23014E   23125.53473440  .00319528  00000-0  24240-2 0  9992,2 55395  69.9978 185.8201 0007978 304.6027  55.4416 15.71207739 14939,6733.581,91.649,360.818,350.074,0.0
55395.0,STARLINK-5274,PAYLOAD,2023-05-05 22:00:00,15.69909822,0.0003373,69.999,184.7501,266.0155,88.5103,0.00016315,0.00019438,0.0,0 STARLINK-5274,1 55395U 23014E   23125.91667824  .00019438  00000-0  16315-3 0  9997,2 55395  69.9990 184.7501 0003373 266.0155  88.5103 15.69909822 14997,6737.292,91.725,361.429,356.885,0.0
55395.0,STARLINK-5274,PAYLOAD,2023-05-06 13:18:56,15.69932136,0.0003031,69.9992,182.9586,254.043,106.0432,3.2696e-05,3.722e-05,0.0,0 STARLINK-5274,1 55395U 23014E   23126.55482588  .00003722  00000-0  32696-4 0  9990,2 55395  69.9992 182.9586 0003031 254.0430 106.0432 15.69932136 16038,6737.228,91.724,361.135,357.051,0.0
55395.0,STARLINK-5274,PAYLOAD,2023-05-07 03:04:45,15.69896828,0.0003339,70.0001,181.346,259.2476,100.8344,-3.2198e-05,-4.078e-05,0.0,0 STARLINK-5274,1 55395U 23014E   23127.12829927 -.00004078  00000-0 -32198-4 0  9990,2 55395  70.0001 181.3460 0003339 259.2476 100.8344 15.69896828 15180,6737.329,91.726,361.444,356.945,0.0
55395.0,STARLINK-5274,PAYLOAD,2023-05-07 12:15:15,15.69909374,0.0002909,69.9987,180.2676,244.5777,115.5118,-6.5936e-06,-1.005e-05,0.0,0 STARLINK-5274,1 55395U 23014E   23127.51059811 -.00001005  00000-0 -65936-5 0  9994,2 55395  69.9987 180.2676 0002909 244.5777 115.5118 15.69909374 15240,6737.293,91.725,361.118,357.198,0.0
55395.0,STARLINK-5274,PAYLOAD,2023-05-08 05:04:29,15.69950277,0.0003566,69.9979,178.298,259.185,100.8944,5.4768e-05,6.385e-05,0.0,0 STARLINK-5274,1 55395U 23014E   23128.21145630  .00006385  00000-0  54768-4 0  9991,2 55395  69.9979 178.2980 0003566 259.1850 100.8944 15.69950277 15354,6737.176,91.723,361.444,356.639,0.0
55395.0,STARLINK-5274,PAYLOAD,2023-05-08 11:11:30,15.69937292,0.0003471,69.9984,177.5822,260.412,99.6684,2.8485e-05,3.215e-05,0.0,0 STARLINK-5274,1 55395U 23014E   23128.46632677  .00003215  00000-0  28485-4 0  9996,2 55395  69.9984 177.5822 0003471 260.4120  99.6684 15.69937292 15399,6737.213,91.723,361.417,356.74,0.0
55395.0,STARLINK-5274,PAYLOAD,2023-05-08 20:22:02,15.69916607,0.0003028,69.9977,176.5073,271.2705,88.8144,-5.2097e-06,-8.39e-06,0.0,0 STARLINK-5274,1 55395U 23014E   23128.84864192 -.00000839  00000-0 -52097-5 0  9995,2 55395  69.9977 176.5073 0003028 271.2705  88.8144 15.69916607 15450,6737.273,91.725,361.178,357.098,0.0
55395.0,STARLINK-5274,PAYLOAD,2023-05-09 05:32:35,15.69890665,0.0002938,69.9974,175.4306,254.7725,105.3146,-6.7629e-06,-1.024e-05,0.0,0 STARLINK-5274,1 55395U 23014E   23129.23096825 -.00001024  00000-0 -67629-5 0  9993,2 55395  69.9974 175.4306 0002938 254.7725 105.3146 15.69890665 15510,6737.347,91.726,361.191,357.232,0.0
55395.0,STARLINK-5274,PAYLOAD,2023-05-09 11:39:35,15.69897276,0.0003056,69.999,174.7188,260.7373,99.3477,6.3627e-06,5.52e-06,0.0,0 STARLINK-5274,1 55395U 23014E   23129.48583050  .00000552  00000-0  63627-5 0  9998,2 55395  69.9990 174.7188 0003056 260.7373  99.3477 15.69897276 16498,6737.328,91.726,361.252,357.134,0.0
55395.0,STARLINK-5274,PAYLOAD,2023-05-10 12:07:34,15.69934618,0.0003353,69.9964,171.8484,266.1731,93.9081,1.1282e-05,1.144e-05,0.0,0 STARLINK-5274,1 55395U 23014E   23130.50526241  .00001144  00000-0  11282-4 0  9999,2 55395  69.9964 171.8484 0003353 266.1731  93.9081 15.69934618 16655,6737.221,91.724,361.345,356.827,0.0
55395.0,STARLINK-5274,PAYLOAD,2023-05-10 19:46:20,15.6992928,0.000379,69.9955,170.9547,269.9295,90.1467,1.0394e-05,1.037e-05,0.0,0 STARLINK-5274,1 55395U 23014E   23130.82384779  .00001037  00000-0  10394-4 0  9996,2 55395  69.9955 170.9547 0003790 269.9295  90.1467 15.69929280 15763,6737.236,91.724,361.655,356.548,0.0
55395.0,STARLINK-5274,PAYLOAD,2023-05-11 11:03:52,15.69910723,0.0003853,69.996,169.1638,274.1387,85.9368,1.0875e-05,1.094e-05,0.0,0 STARLINK-5274,1 55395U 23014E   23131.46102887  .00001094  00000-0  10875-4 0  9992,2 55395  69.9960 169.1638 0003853 274.1387  85.9368 15.69910723 15865,6737.289,91.725,361.75,356.559,0.0
55395.0,STARLINK-5274,PAYLOAD,2023-05-11 20:14:20,15.69962781,0.000361,69.9969,168.0879,271.6615,88.4167,3.7138e-05,4.262e-05,0.0,0 STARLINK-5274,1 55395U 23014E   23131.84328826  .00004262  00000-0  37138-4 0  9998,2 55395  69.9969 168.0879 0003610 271.6615  88.4167 15.69962781 16863,6737.14,91.722,361.438,356.573,0.0
55395.0,STARLINK-5274,PAYLOAD,2023-05-12 03:53:04,15.6997551,0.000404,69.9952,167.1937,274.2825,85.7909,2.4502e-05,2.74e-05,0.0,0 STARLINK-5274,1 55395U 23014E   23132.16185701  .00002740  00000-0  24502-4 0  9997,2 55395  69.9952 167.1937 0004040 274.2825  85.7909 15.69975510 16914,6737.104,91.721,361.691,356.247,0.0
55395.0,STARLINK-5274,PAYLOAD,2023-05-12 05:24:49,15.69972548,0.0003234,69.9971,167.014,267.8749,92.2076,4.236e-05,4.894e-05,0.0,0 STARLINK-5274,1 55395U 23014E   23132.22556910  .00004894  00000-0  42360-4 0  9992,2 55395  69.9971 167.0140 0003234 267.8749  92.2076 15.69972548 15989,6737.113,91.721,361.156,356.799,0.0
55395.0,STARLINK-5274,PAYLOAD,2023-05-13 04:21:10,15.69897844,0.0003616,69.9974,164.3286,271.1786,88.8995,-2.5176e-05,-3.236e-05,0.0,0 STARLINK-5274,1 55395U 23014E   23133.18137411 -.00003236  00000-0 -25176-4 0  9996,2 55395  69.9974 164.3286 0003616 271.1786  88.8995 15.69897844 16130,6737.326,91.726,361.627,356.755,0.0
55395.0,STARLINK-5274,PAYLOAD,2023-05-13 11:59:56,15.69897269,0.0003034,69.9977,163.433,261.1421,98.9431,-2.1125e-05,-2.749e-05,0.0,0 STARLINK-5274,1 55395U 23014E   23133.49996102 -.00002749  00000-0 -21125-4 0  9998,2 55395  69.9977 163.4330 0003034 261.1421  98.9431 15.69897269 17120,6737.328,91.726,361.237,357.149,0.0
55395.0,STARLINK-5274,PAYLOAD,2023-05-13 13:31:46,15.69898085,0.0003239,69.9963,163.2501,277.0837,82.9991,4.5755e-06,3.37e-06,0.0,0 STARLINK-5274,1 55395U 23014E   23133.56372804  .00000337  00000-0  45755-5 0  9998,2 55395  69.9963 163.2501 0003239 277.0837  82.9991 15.69898085 16194,6737.326,91.726,361.373,357.008,0.0
55395.0,STARLINK-5274,PAYLOAD,2023-05-14 10:56:12,15.69914416,0.0003008,69.9974,160.7435,274.9171,85.1681,1.5324e-05,1.63e-05,0.0,0 STARLINK-5274,1 55395U 23014E   23134.45569632  .00001630  00000-0  15324-4 0  9999,2 55395  69.9974 160.7435 0003008 274.9171  85.1681 15.69914416 16339,6737.279,91.725,361.17,357.117,0.0
55395.0,STARLINK-5274,PAYLOAD,2023-05-14 12:27:57,15.69909631,0.0003065,69.9975,160.5641,276.662,83.4227,2.2417e-05,2.482e-05,0.0,0 STARLINK-5274,1 55395U 23014E   23134.51941517  .00002482  00000-0  22417-4 0  9999,2 55395  69.9975 160.5641 0003065 276.6620  83.4227 15.69909631 17283,6737.293,91.725,361.223,357.093,0.0
55395.0,STARLINK-5274,PAYLOAD,2023-05-15 11:24:14,15.69908037,0.0002988,69.9972,157.8771,264.099,95.9865,3.3354e-05,3.797e-05,0.0,0 STARLINK-5274,1 55395U 23014E   23135.47516994  .00003797  00000-0  33354-4 0  9994,2 55395  69.9972 157.8771 0002988 264.0990  95.9865 15.69908037 16494,6737.297,91.725,361.175,357.149,0.0
55395.0,STARLINK-5274,PAYLOAD,2023-05-15 19:03:00,15.69909126,0.0003268,69.9971,156.9807,268.8,91.2821,1.9418e-05,2.121e-05,0.0,0 STARLINK-5274,1 55395U 23014E   23135.79375843  .00002121  00000-0  19418-4 0  9990,2 55395  69.9971 156.9807 0003268 268.8000  91.2821 15.69909126 17480,6737.294,91.725,361.361,356.957,0.0
55395.0,STARLINK-5274,PAYLOAD,2023-05-16 11:52:17,15.69920167,0.0003125,69.9976,155.0118,273.219,86.8648,1.4427e-05,1.522e-05,0.0,0 STARLINK-5274,1 55395U 23014E   23136.49464154  .00001522  00000-0  14427-4 0  9991,2 55395  69.9976 155.0118 0003125 273.2190  86.8648 15.69920167 17599,6737.262,91.724,361.233,357.022,0.0
55395.0,STARLINK-5274,PAYLOAD,2023-05-17 10:48:34,15.69927424,0.0002704,69.997,152.3242,266.7778,93.3109,-1.1132e-05,-1.551e-05,0.0,0 STARLINK-5274,1 55395U 23014E   23137.45039401 -.00001551  00000-0 -11132-4 0  9995,2 55395  69.9970 152.3242 0002704 266.7778  93.3109 15.69927424 17747,6737.242,91.724,360.928,357.285,0.0
55395.0,STARLINK-5274,PAYLOAD,2023-05-18 02:06:05,15.69924213,0.0003108,69.9972,150.5314,261.5803,98.504,3.3675e-06,1.92e-06,0.0,0 STARLINK-5274,1 55395U 23014E   23138.08755979  .00000192  00000-0  33675-5 0  9995,2 55395  69.9972 150.5314 0003108 261.5803  98.5040 15.69924213 16901,6737.251,91.724,361.21,357.022,0.0
